STEP CUBE LAB           
1 43138U 18004AD  21005.47975645  .00002452  00000-0  98046-4 0  9991
2 43138  97.4294  82.3663 0010054  67.8579 292.3726 15.26027242165897
XIAOXIANG-2             
1 43155U 18008A   21005.49267844  .00000805  00000-0  50383-4 0  9993
2 43155  97.4246  75.2128 0017648 166.5093 321.8091 15.12035657163440
ZHOU ENLAI              
1 43156U 18008B   21005.51299890  .00001363  00000-0  83756-4 0  9993
2 43156  97.4292  75.0694 0015086 164.7839 309.2436 15.11614156163393
QUANTUTONG 1            
1 43158U 18008D   21005.44432081  .00001295  00000-0  80938-4 0  9991
2 43158  97.4240  73.8025 0014012 164.0886 209.3603 15.11099113163324
S-NET D                 
1 43186U 18014G   21005.46304268 -.00000031  00000-0  22976-5 0  9993
2 43186  97.6863 275.8929 0009714 268.8183  91.1925 14.96939377159912
S-NET B                 
1 43187U 18014H   21005.46291000 -.00000030  00000-0  23939-5 0  9992
2 43187  97.6860 275.8649 0009716 268.7562  91.2547 14.96939016159912
S-NET A                 
1 43188U 18014J   21005.46282405 -.00000039  00000-0  16069-5 0  9997
2 43188  97.6863 275.9025 0009704 268.8872  91.1238 14.96937734159918
S-NET C                 
1 43189U 18014K   21005.46331810 -.00000017  00000-0  35861-5 0  9990
2 43189  97.6858 275.8591 0009716 268.6360  91.3749 14.96937809158464
FENGMANIU-1 (FMN-1)     
1 43192U 18015A   21005.47801066  .00003377  00000-0  13061-3 0  9998
2 43192  97.4669 140.4610 0016665  97.5170 327.9277 15.26798250162710
SHAONIAN XING           
1 43199U 18015H   21005.53209890  .00002498  00000-0  97725-4 0  9992
2 43199  97.4453 138.2240 0017824 106.3879 320.5957 15.26646408162783
UBAKUSAT                
1 43467U 98067NQ  20362.27906033  .06269310  12352-4  52456-3 0  9996
2 43467  51.6190 354.3668 0001241 137.3285 222.7838 16.38845679150702
LUOJIA-1 01             
1 43485U 18048B   21005.51802545  .00000213  00000-0  37621-4 0  9992
2 43485  97.9765  89.3138 0012694 101.3062 258.9573 14.76774676139946
EQUISAT                 
1 43552U 98067PA  20361.21801847  .10316869  12478-4  50011-3 0  9992
2 43552  51.6122   8.3673 0000676 209.2273 150.8717 16.43170683140619
RADSAT-G                
1 43553U 98067PB  21005.39216519  .00066177  00000-0  29286-3 0  9991
2 43553  51.6375 339.5225 0005925 111.6529 248.5105 15.83776370141967
SIRIUSSAT-1             
1 43595U 98067PG  20344.55055662  .07916525  12514-4  56251-3 0  9997
2 43595  51.6588  97.6693 0009437  42.2825  52.9592 16.39998780132780
SIRIUSSAT-2             
1 43596U 98067PH  20344.36554324  .08904132  12494-4  57179-3 0  9995
2 43596  51.6062  99.6513 0006261 312.7483  99.6145 16.40921535132742
SURFSAT                 
1 43614U 18070B   21005.32985724  .00003794  00000-0  93197-4 0  9998
2 43614  93.0258 238.2531 0011828 279.1861  80.8056 15.40653614129548
CP7 (DAVE)              
1 43615U 18070C   21005.38459274  .00003768  00000-0  93244-4 0  9995
2 43615  93.0261 238.2513 0012019 278.5453  81.4440 15.40426034129544
ELFIN-B                 
1 43616U 18070D   21005.34272462  .00005708  00000-0  13181-3 0  9991
2 43616  93.0218 238.2682 0012068 279.0433  80.9457 15.42487118129614
ELFIN-A                 
1 43617U 18070E   21005.34380686  .00005666  00000-0  12948-3 0  9993
2 43617  93.0272 238.9599 0011427 275.0490  84.9462 15.42806887129625
1998-067PP              
1 43639U 98067PP  21005.39257547  .00086205  00000-0  34232-3 0  9993
2 43639  51.6297 345.2524 0005894  88.7876 271.3803 15.85936005128616
STARS-ME                
1 43640U 98067PQ  21005.37627759  .00035677  00000-0  23734-3 0  9991
2 43640  51.6336 358.7137 0005318  74.0342 286.1243 15.75048590128432
CZ-4B R/B               
1 43656U 18081B   21005.50059896  .00000004  00000-0  19157-4 0  9993
2 43656  99.3702  93.2199 0208105 221.2600 137.2694 14.30449864114874
CUBEBEL-1 (BSUSAT-1)    
1 43666U 18083E   21005.55443575  .00001581  00000-0  79134-4 0  9994
2 43666  97.4722  35.8811 0015424  22.8273 128.5844 15.18790124121288
CHANGSHAGAOXIN (TY 4-01)
1 43669U 18083H   21005.48226986  .00001125  00000-0  59074-4 0  9999
2 43669  97.4609  33.3831 0011277  19.9759 112.0879 15.17707563121165
TEN-KOH                 
1 43677U 18084G   21005.31438514  .00000126  00000-0  18776-4 0  9997
2 43677  97.9021 128.1637 0015361 208.1413 151.8976 14.90380934119009
DIWATA-2B               
1 43678U 18084H   21005.52158602  .00000427  00000-0  48213-4 0  9991
2 43678  97.9049 130.2002 0008894 223.5927 136.4562 14.91697892119144
STARS-AO                
1 43679U 18084J   21005.30874400  .00000332  00000-0  38156-4 0  9999
2 43679  97.9084 130.9515 0008076 231.5770 128.4724 14.92370671119153
AUTCUBE 2               
1 43681U 18084K   21005.29345526  .00000453  00000-0  50454-4 0  9991
2 43681  97.9051 130.2196 0008527 224.5881 135.4652 14.91972085119080
IRVINE01                
1 43693U 18088D   21005.28454957  .00004300  00000-0  17442-3 0  9990
2 43693  85.0351 303.2977 0014455 268.9586  91.0001 15.24215011119579
ES'HAIL 2               
1 43700U 18090A   21005.33955031  .00000153  00000-0  00000-0 0  9998
2 43700   0.0186  43.0746 0001670 279.0872 291.0070  1.00270202  7734
FACSAT-1                
1 43721U 18096C   21005.51938718  .00002363  00000-0  88707-4 0  9999
2 43721  97.4027  83.8696 0018538 125.6674   1.9467 15.28060958117239
CENTAURI-2              
1 43722U 18096D   21005.24240630  .00003134  00000-0  11396-3 0  9995
2 43722  97.4042  84.1019 0018350 126.2640 234.0299 15.28857844117210
3CAT-1                  
1 43728U 18096K   21005.48845718  .00003067  00000-0  11054-3 0  9991
2 43728  97.4051  84.8236 0018168 129.2834 352.9599 15.29168631117278
INNOSAT-2               
1 43738U 18096V   21005.51828066  .00004300  00000-0  14116-3 0  9996
2 43738  97.4078  87.2583 0023801 129.8264 355.1637 15.31863136117445
REAKTOR HELLO WORLD     
1 43743U 18096AA  21005.23741819  .00001949  00000-0  73537-4 0  9990
2 43743  97.4034  83.9465 0018739 131.4229 228.8624 15.28099552117204
ELYSIUM STAR 2 & LFF    
1 43760U 18099C   21005.54177668  .00000882  00000-0  83723-4 0  9994
2 43760  97.6884  79.9610 0013043 227.2992 132.7133 14.95989562114150
2018-099D               
1 43761U 18099D   21005.46546637  .00000001  00000-0  53043-5 0  9998
2 43761  97.6859  79.5091 0013476 231.5577 128.4453 14.95214723114112
AISTECHSAT 2            
1 43768U 18099L   21005.44400469 -.00000098  00000-0 -38262-5 0  9999
2 43768  97.6835  78.5733 0010390 229.3743 130.6575 14.94789639113792
FOX-1CLIFF (AO-95)      
1 43770U 18099N   21005.43194077  .00000232  00000-0  26318-4 0  9992
2 43770  97.6860  79.0719 0013260 239.6709 120.3201 14.95161999114098
RANGE-A                 
1 43772U 18099Q   21005.22280621  .00000916  00000-0  88006-4 0  9993
2 43772  97.6937  79.6248 0013084 225.8479 134.1667 14.95410434114060
RANGE-B                 
1 43773U 18099R   21005.42795148  .00000216  00000-0  24867-4 0  9999
2 43773  97.6798  78.5444 0012437 225.2952 134.7257 14.95096810114084
2018-099T               
1 43775U 18099T   21005.43760343 -.00000099  00000-0 -37928-5 0  9995
2 43775  97.6863  79.2828 0013491 230.2235 129.7799 14.95181771114091
MOVE-II                 
1 43780U 18099Y   21005.45403112  .00000431  00000-0  43898-4 0  9991
2 43780  97.6866  79.4594 0012451 236.0910 123.9128 14.95667770114103
SNUSAT-2                
1 43782U 18099AA  21005.15709829  .00000566  00000-0  56365-4 0  9996
2 43782  97.6859  79.0866 0011653 224.8074 135.2207 14.95417321114068
SNUGLITE                
1 43784U 18099AC  21005.44599000 -.00000024  00000-0  30405-5 0  9996
2 43784  97.6820  79.1399 0013986 233.4783 126.5151 14.95525833114120
ITASAT 1                
1 43786U 18099AE  21005.45129078  .00000002  00000-0  53430-5 0  9991
2 43786  97.6875  79.6550 0014113 232.6835 127.3100 14.95475303114127
KAZSCISAT-1             
1 43787U 18099AF  21005.15363156  .00000974  00000-0  92202-4 0  9993
2 43787  97.6788  78.6237 0013018 229.6862 130.3223 14.95865323114092
EAGLET-I                
1 43790U 18099AJ  21005.45890767  .00000205  00000-0  23466-4 0  9996
2 43790  97.6862  80.0061 0012425 236.5093 123.4941 14.95852618113840
ESEO                    
1 43792U 18099AL  21005.22044195  .00000527  00000-0  52459-4 0  9990
2 43792  97.6838  79.4826 0011994 233.5586 126.4530 14.95674285113861
CSIM-FD                 
1 43793U 18099AM  21005.46073234  .00000612  00000-0  59171-4 0  9996
2 43793  97.6843  79.8723 0012231 228.9814 131.0350 14.96323972113895
ASTROCAST 0.1           
1 43798U 18099AS  21005.16002158  .00000530  00000-0  52294-4 0  9993
2 43798  97.6868  79.8571 0011475 214.3208 145.7272 14.96006749114103
JY1SAT (JO-97)          
1 43803U 18099AX  21005.44009600  .00000015  00000-0  64795-5 0  9998
2 43803  97.6838  79.4197 0013989 232.8559 127.1385 14.95689383114124
SUOMI-100               
1 43804U 18099AY  21005.24220396 -.00000029  00000-0  25696-5 0  9997
2 43804  97.6836  79.2040 0014062 233.7719 126.2203 14.95668740114100
AL-FARABI 2             
1 43805U 18099AZ  21005.53214261  .00000373  00000-0  38510-4 0  9993
2 43805  97.6827  79.6375 0014373 232.0597 127.9339 14.95834289114153
CENTAURI-1              
1 43809U 18099BD  21005.18914396  .00000074  00000-0  11810-4 0  9996
2 43809  97.6846  79.4233 0014137 234.9112 125.0784 14.95704731113791
PW-SAT2                 
1 43814U 18099BJ  21005.49926279  .00159326  00000-0  40707-2 0  9999
2 43814  97.7878  98.8210 0011571 239.6436 120.3664 15.38770014114413
CHOMPTT                 
1 43855U 18104G   21005.12608591  .00001313  00000-0  53101-4 0  9991
2 43855  85.0361  41.7231 0018519  35.6514 324.5961 15.23476668114224
DAVINCI                 
1 43857U 18104J   21005.49674953  .00003488  00000-0  14147-3 0  9999
2 43857  85.0319  41.5367 0017087  59.1144 301.1777 15.24094709114258
